start=new Date('2021-08-27T00:00:00.000Z').valueOf();
sats=[{"TLE_LINE1":"1 48277U 21036B   21238.91670139 -.00058205  00000-0 -41225-3 0  9991","MEAN_ELEMENT_THEORY":"SGP4","SEMIMAJOR_AXIS":"6727.795","LAUNCH_DATE":"2021-04-29","CLASSIFICATION_TYPE":"U","TLE_LINE2":"2 48277  53.0502 293.9745 0003750   9.8728 179.4702 15.73235171  3685","RCS_SIZE":"LARGE","REF_FRAME":"TEME","EPHEMERIS_TYPE":"0","APOAPSIS":"352.183","PERIOD":"91.531","ARG_OF_PERICENTER":"9.8728","ECCENTRICITY":"0.00037500","FILE":"3103480","MEAN_ANOMALY":"179.4702","GP_ID":"183496686","SITE":"AFETR","ELEMENT_SET_NO":"999","MEAN_MOTION_DDOT":"0.0000000000000","NORAD_CAT_ID":"48277","MEAN_MOTION_DOT":"-0.00058205","EPOCH":"2021-08-26T22:00:03.000096","OBJECT_TYPE":"PAYLOAD","DECAY_DATE":null,"RA_OF_ASC_NODE":"293.9745","MEAN_MOTION":"15.73235171","CENTER_NAME":"EARTH","PERIAPSIS":"347.137","INCLINATION":"53.0502","OBJECT_NAME":"STARLINK-2569","COUNTRY_CODE":"US","TIME_SYSTEM":"UTC","OBJECT_ID":"2021-036B","BSTAR":"-0.00041225000000","REV_AT_EPOCH":"368"},{"REV_AT_EPOCH":"368","BSTAR":"0.00023580000000","OBJECT_ID":"2021-036C","TIME_SYSTEM":"UTC","COUNTRY_CODE":"US","OBJECT_NAME":"STARLINK-2543","INCLINATION":"53.0503","PERIAPSIS":"346.999","CENTER_NAME":"EARTH","MEAN_MOTION":"15.73194659","RA_OF_ASC_NODE":"293.9722","DECAY_DATE":null,"OBJECT_TYPE":"PAYLOAD","EPOCH":"2021-08-26T22:00:03.000096","MEAN_MOTION_DOT":"0.00032609","NORAD_CAT_ID":"48278","MEAN_MOTION_DDOT":"0.0000000000000","ELEMENT_SET_NO":"999","GP_ID":"183496936","MEAN_ANOMALY":"184.1792","SITE":"AFETR","FILE":"3103480","ECCENTRICITY":"0.00041260","ARG_OF_PERICENTER":"5.7697","PERIOD":"91.533","APOAPSIS":"352.551","EPHEMERIS_TYPE":"0","REF_FRAME":"TEME","RCS_SIZE":"LARGE","TLE_LINE2":"2 48278  53.0503 293.9722 0004126   5.7697 184.1792 15.73194659  3687","CLASSIFICATION_TYPE":"U","LAUNCH_DATE":"2021-04-29","SEMIMAJOR_AXIS":"6727.910","MEAN_ELEMENT_THEORY":"SGP4","TLE_LINE1":"1 48278U 21036C   21238.91670139  .00032609  00000-0  23580-3 0  9994"},{"TLE_LINE1":"1 48279U 21036D   21238.91670139  .00029925  00000-0  21675-3 0  9995","MEAN_ELEMENT_THEORY":"SGP4","SEMIMAJOR_AXIS":"6727.879","LAUNCH_DATE":"2021-04-29","TLE_LINE2":"2 48279  53.0502 293.9707 0003520   8.1443 182.4685 15.73205630  3687","CLASSIFICATION_TYPE":"U","RCS_SIZE":"LARGE","REF_FRAME":"TEME","EPHEMERIS_TYPE":"0","APOAPSIS":"352.112","PERIOD":"91.533","ARG_OF_PERICENTER":"8.1443","ECCENTRICITY":"0.00035200","FILE":"3103480","GP_ID":"183498187","MEAN_ANOMALY":"182.4685","SITE":"AFETR","ELEMENT_SET_NO":"999","MEAN_MOTION_DDOT":"0.0000000000000","NORAD_CAT_ID":"48279","MEAN_MOTION_DOT":"0.00029925","EPOCH":"2021-08-26T22:00:03.000096","OBJECT_TYPE":"PAYLOAD","DECAY_DATE":null,"RA_OF_ASC_NODE":"293.9707","MEAN_MOTION":"15.73205630","CENTER_NAME":"EARTH","PERIAPSIS":"347.376","INCLINATION":"53.0502","OBJECT_NAME":"STARLINK-2580","COUNTRY_CODE":"US","TIME_SYSTEM":"UTC","OBJECT_ID":"2021-036D","BSTAR":"0.00021675000000","REV_AT_EPOCH":"368"},{"LAUNCH_DATE":"2021-04-29","SEMIMAJOR_AXIS":"6925.360","MEAN_ELEMENT_THEORY":"SGP4","TLE_LINE1":"1 48280U 21036E   21238.54699601 -.00000868  00000-0 -39384-4 0  9995","PERIOD":"95.592","APOAPSIS":"547.778","EPHEMERIS_TYPE":"0","REF_FRAME":"TEME","RCS_SIZE":"LARGE","CLASSIFICATION_TYPE":"U","TLE_LINE2":"2 48280  53.0558 331.3186 0000799 134.1845 225.9210 15.06396324 18487","NORAD_CAT_ID":"48280","MEAN_MOTION_DDOT":"0.0000000000000","ELEMENT_SET_NO":"999","GP_ID":"183474210","MEAN_ANOMALY":"225.9210","SITE":"AFETR","FILE":"3103463","ECCENTRICITY":"0.00007990","ARG_OF_PERICENTER":"134.1845","DECAY_DATE":null,"OBJECT_TYPE":"PAYLOAD","EPOCH":"2021-08-26T13:07:40.455264","MEAN_MOTION_DOT":"-0.00000868","RA_OF_ASC_NODE":"331.3186","PERIAPSIS":"546.671","CENTER_NAME":"EARTH","MEAN_MOTION":"15.06396324","COUNTRY_CODE":"US","OBJECT_NAME":"STARLINK-2565","INCLINATION":"53.0558","REV_AT_EPOCH":"1848","BSTAR":"-0.00003938400000","OBJECT_ID":"2021-036E","TIME_SYSTEM":"UTC"},{"LAUNCH_DATE":"2021-04-29","SEMIMAJOR_AXIS":"6925.328","MEAN_ELEMENT_THEORY":"SGP4","TLE_LINE1":"1 48281U 21036F   21238.91670139 -.00020878  00000-0 -13866-2 0  9990","APOAPSIS":"548.059","EPHEMERIS_TYPE":"0","PERIOD":"95.592","CLASSIFICATION_TYPE":"U","TLE_LINE2":"2 48281  53.0528 309.6595 0001250  77.0386  59.0993 15.06406670  3580","REF_FRAME":"TEME","RCS_SIZE":"LARGE","ELEMENT_SET_NO":"999","MEAN_MOTION_DDOT":"0.0000000000000","NORAD_CAT_ID":"48281","ECCENTRICITY":"0.00012500","ARG_OF_PERICENTER":"77.0386","GP_ID":"183497186","MEAN_ANOMALY":"59.0993","SITE":"AFETR","FILE":"3103480","OBJECT_TYPE":"PAYLOAD","DECAY_DATE":null,"MEAN_MOTION_DOT":"-0.00020878","EPOCH":"2021-08-26T22:00:03.000096","RA_OF_ASC_NODE":"309.6595","PERIAPSIS":"546.327","CENTER_NAME":"EARTH","MEAN_MOTION":"15.06406670","COUNTRY_CODE":"US","INCLINATION":"53.0528","OBJECT_NAME":"STARLINK-2520","REV_AT_EPOCH":"358","BSTAR":"-0.00138660000000","TIME_SYSTEM":"UTC","OBJECT_ID":"2021-036F"},{"NORAD_CAT_ID":"48282","ELEMENT_SET_NO":"999","MEAN_MOTION_DDOT":"0.0000000000000","FILE":"3103480","GP_ID":"183497436","SITE":"AFETR","MEAN_ANOMALY":"268.3092","ARG_OF_PERICENTER":"100.3098","ECCENTRICITY":"0.00009540","DECAY_DATE":null,"OBJECT_TYPE":"PAYLOAD","EPOCH":"2021-08-26T22:00:03.000096","MEAN_MOTION_DOT":"-0.00027936","SEMIMAJOR_AXIS":"6925.313","LAUNCH_DATE":"2021-04-29","TLE_LINE1":"1 48282U 21036G   21238.91670139 -.00027936  00000-0 -18634-2 0  9991","MEAN_ELEMENT_THEORY":"SGP4","PERIOD":"95.591","EPHEMERIS_TYPE":"0","APOAPSIS":"547.839","RCS_SIZE":"LARGE","REF_FRAME":"TEME","CLASSIFICATION_TYPE":"U","TLE_LINE2":"2 48282  53.0609 314.6280 0000954 100.3098 268.3092 15.06411478  3585","COUNTRY_CODE":"US","OBJECT_NAME":"STARLINK-2558","INCLINATION":"53.0609","BSTAR":"-0.00186340000000","REV_AT_EPOCH":"358","OBJECT_ID":"2021-036G","TIME_SYSTEM":"UTC","RA_OF_ASC_NODE":"314.6280","CENTER_NAME":"EARTH","PERIAPSIS":"546.518","MEAN_MOTION":"15.06411478"},{"DECAY_DATE":null,"OBJECT_TYPE":"PAYLOAD","EPOCH":"2021-08-26T22:00:03.000096","MEAN_MOTION_DOT":"-0.00028085","NORAD_CAT_ID":"48283","ELEMENT_SET_NO":"999","MEAN_MOTION_DDOT":"0.0000000000000","FILE":"3103480","GP_ID":"183497688","SITE":"AFETR","MEAN_ANOMALY":"309.8194","ARG_OF_PERICENTER":"78.8213","ECCENTRICITY":"0.00010230","PERIOD":"95.592","EPHEMERIS_TYPE":"0","APOAPSIS":"547.926","RCS_SIZE":"LARGE","REF_FRAME":"TEME","TLE_LINE2":"2 48283  53.0682 314.6009 0001023  78.8213 309.8194 15.06398662  3585","CLASSIFICATION_TYPE":"U","SEMIMAJOR_AXIS":"6925.353","LAUNCH_DATE":"2021-04-29","MEAN_ELEMENT_THEORY":"SGP4","TLE_LINE1":"1 48283U 21036H   21238.91670139 -.00028085  00000-0 -18741-2 0  9997","BSTAR":"-0.00187410000000","REV_AT_EPOCH":"358","OBJECT_ID":"2021-036H","TIME_SYSTEM":"UTC","COUNTRY_CODE":"US","OBJECT_NAME":"STARLINK-2516","INCLINATION":"53.0682","CENTER_NAME":"EARTH","PERIAPSIS":"546.509","MEAN_MOTION":"15.06398662","RA_OF_ASC_NODE":"314.6009"},{"ARG_OF_PERICENTER":"86.2342","ECCENTRICITY":"0.00006230","FILE":"3103480","MEAN_ANOMALY":"322.3889","GP_ID":"183498438","SITE":"AFETR","ELEMENT_SET_NO":"999","MEAN_MOTION_DDOT":"0.0000000000000","NORAD_CAT_ID":"48284","MEAN_MOTION_DOT":"-0.00027040","EPOCH":"2021-08-26T22:00:03.000096","OBJECT_TYPE":"PAYLOAD","DECAY_DATE":null,"TLE_LINE1":"1 48284U 21036J   21238.91670139 -.00027040  00000-0 -18028-2 0  9996","MEAN_ELEMENT_THEORY":"SGP4","SEMIMAJOR_AXIS":"6925.314","LAUNCH_DATE":"2021-04-29","CLASSIFICATION_TYPE":"U","TLE_LINE2":"2 48284  53.0497 314.7042 0000623  86.2342 322.3889 15.06411383  3586","RCS_SIZE":"LARGE","REF_FRAME":"TEME","EPHEMERIS_TYPE":"0","APOAPSIS":"547.610","PERIOD":"95.591","INCLINATION":"53.0497","OBJECT_NAME":"STARLINK-2564","COUNTRY_CODE":"US","TIME_SYSTEM":"UTC","OBJECT_ID":"2021-036J","BSTAR":"-0.00180280000000","REV_AT_EPOCH":"358","RA_OF_ASC_NODE":"314.7042","MEAN_MOTION":"15.06411383","CENTER_NAME":"EARTH","PERIAPSIS":"546.747"},{"OBJECT_ID":"2021-036K","TIME_SYSTEM":"UTC","REV_AT_EPOCH":"358","BSTAR":"-0.00177040000000","OBJECT_NAME":"STARLINK-2548","INCLINATION":"53.0401","COUNTRY_CODE":"US","MEAN_MOTION":"15.06402091","PERIAPSIS":"546.582","CENTER_NAME":"EARTH","RA_OF_ASC_NODE":"314.7304","EPOCH":"2021-08-26T22:00:03.000096","MEAN_MOTION_DOT":"-0.00026555","DECAY_DATE":null,"OBJECT_TYPE":"PAYLOAD","GP_ID":"183496687","MEAN_ANOMALY":"326.0242","SITE":"AFETR","FILE":"3103480","ECCENTRICITY":"0.00009030","ARG_OF_PERICENTER":"102.6250","NORAD_CAT_ID":"48285","ELEMENT_SET_NO":"999","MEAN_MOTION_DDOT":"0.0000000000000","REF_FRAME":"TEME","RCS_SIZE":"LARGE","TLE_LINE2":"2 48285  53.0401 314.7304 0000903 102.6250 326.0242 15.06402091  3585","CLASSIFICATION_TYPE":"U","PERIOD":"95.592","APOAPSIS":"547.833","EPHEMERIS_TYPE":"0","TLE_LINE1":"1 48285U 21036K   21238.91670139 -.00026555  00000-0 -17704-2 0  9997","MEAN_ELEMENT_THEORY":"SGP4","LAUNCH_DATE":"2021-04-29","SEMIMAJOR_AXIS":"6925.342"},{"OBJECT_ID":"2021-036L","TIME_SYSTEM":"UTC","REV_AT_EPOCH":"358","BSTAR":"-0.00173880000000","OBJECT_NAME":"STARLINK-2547","INCLINATION":"53.0514","COUNTRY_CODE":"US","MEAN_MOTION":"15.06416909","PERIAPSIS":"546.646","CENTER_NAME":"EARTH","RA_OF_ASC_NODE":"314.6684","EPOCH":"2021-08-26T22:00:03.000096","MEAN_MOTION_DOT":"-0.00026097","DECAY_DATE":null,"OBJECT_TYPE":"PAYLOAD","SITE":"AFETR","GP_ID":"183496937","MEAN_ANOMALY":"356.1316","FILE":"3103480","ECCENTRICITY":"0.00007440","ARG_OF_PERICENTER":"92.4485","NORAD_CAT_ID":"48286","MEAN_MOTION_DDOT":"0.0000000000000","ELEMENT_SET_NO":"999","REF_FRAME":"TEME","RCS_SIZE":"LARGE","CLASSIFICATION_TYPE":"U","TLE_LINE2":"2 48286  53.0514 314.6684 0000744  92.4485 356.1316 15.06416909  3589","PERIOD":"95.591","APOAPSIS":"547.677","EPHEMERIS_TYPE":"0","MEAN_ELEMENT_THEORY":"SGP4","TLE_LINE1":"1 48286U 21036L   21238.91670139 -.00026097  00000-0 -17388-2 0  9997","LAUNCH_DATE":"2021-04-29","SEMIMAJOR_AXIS":"6925.297"}];
